GORIZONT 1 [-]          
1 11158U 78118A   15038.22537217 -.00000210  00000-0  00000+0 0  9990
2 11158  18.1495 285.3086 3351510 157.4276 221.6040  1.00303945 81344
GORIZONT 2 [-]          
1 11440U 79062A   15039.88813308 -.00000229  00000-0  00000+0 0  9994
2 11440  13.8852 333.3956 0005099 211.2128   2.1123  1.00289641 96433
GORIZONT 3 [-]          
1 11648U 79105A   15040.91400635  .00000118  00000-0  00000+0 0  9999
2 11648  13.9599 334.5376 0015165 150.0349  28.8910  1.00235103 80897
GORIZONT 4 [-]          
1 11841U 80049A   15041.07397910 -.00000171  00000-0  00000+0 0  9992
2 11841  14.8520 338.6980 0003954 219.2100 335.1592  0.98630614192669
GORIZONT 5 [-]          
1 13092U 82020A   15041.17445620 -.00000165  00000-0  00000+0 0  9999
2 13092  15.4572 343.4730 0035806 140.9012  27.0710  0.98531939 80747
GORIZONT 6 [-]          
1 13624U 82103A   15039.56720262  .00000071  00000-0  00000+0 0  9995
2 13624  14.3091 343.3756 0004769 164.1059  23.0353  1.00264115 79359
GORIZONT 7 [-]          
1 14160U 83066A   15040.46047353 -.00000107  00000-0  00000+0 0  9995
2 14160  15.3198 350.7709 0012450 230.0029  18.8645  0.98347206114018
GORIZONT 8 [-]          
1 14532U 83118A   15040.44102454 -.00000027  00000-0  00000+0 0  9999
2 14532  15.3362 352.3036 0026715  83.1935  96.1643  0.98268382 79796
GORIZONT 9 [-]          
1 14940U 84041A   15038.00402248 -.00000000  00000-0  00000+0 0  9992
2 14940  14.6059 351.1769 0008259 166.6531  42.4574  1.00312643 80429
GORIZONT 10 [-]         
1 15144U 84078A   15038.48768839  .00000004  00000-0  00000+0 0  9995
2 15144  14.6038 352.1835 0003752 196.2360   2.8800  1.00170503113011
GORIZONT 11 [-]         
1 15484U 85007A   15036.93254029  .00000014  00000-0  00000+0 0  9995
2 15484  14.6047 353.9165 0003092 142.5666  38.4474  1.00153924111011
GORIZONT 12 [-]         
1 16769U 86044A   15038.80926517 -.00000360  00000-0  00000+0 0  9995
2 16769  14.7284 358.7208 0004996 186.0763 353.6737  1.00264699105680
GORIZONT 13 [-]         
1 17083U 86090A   15039.42716025 -.00000076  00000-0  00000+0 0  9990
2 17083  16.0109   4.2815 0015562 253.2637 273.1555  0.96724809 78553
GORIZONT 14 [-]         
1 17969U 87040A   15036.90900873 -.00000064  00000-0  00000+0 0  9992
2 17969  15.7925 356.8460 0030661 107.7810  90.0169  0.97657001 79326
GORIZONT 15 [-]         
1 19017U 88028A   15039.15127388 -.00000154  00000-0  00000+0 0  9997
2 19017  15.9172   7.8900 0035793  88.5523  54.9976  0.97828695 78916
GORIZONT 16 [-]         
1 19397U 88071A   15040.15437933 -.00000214  00000-0  00000+0 0  9995
2 19397  14.8596   6.9378 0011184 332.5183 194.8937  0.99986355 96771
GORIZONT 17 [-]         
1 19765U 89004A   15039.39424431  .00000035  00000-0  00000+0 0  9994
2 19765  15.0793   9.7515 0019933  65.2992  91.1534  0.99063330 94481
GORIZONT 18 [-]         
1 20107U 89052A   15040.57585818 -.00000102  00000-0  00000+0 0  9994
2 20107  14.9695  11.1468 0036404 237.9690 281.4552  0.99403758 93194
GORIZONT 19 [-]         
1 20263U 89081A   15039.08080870  .00000126  00000-0  00000+0 0  9996
2 20263  14.7567  10.7341 0005826 181.5257   9.7217  1.00282442 92900
GORIZONT 20 [-]         
1 20659U 90054A   15041.02199813  .00000073  00000-0  00000+0 0  9993
2 20659  14.8687  13.7376 0008668 128.8378  57.8800  1.00273472 90126
GORIZONT 21 [-]         
1 20923U 90094A   15040.15450891 -.00000132  00000-0  00000+0 0  9997
2 20923  14.7902  14.5834 0007048 165.5773 359.8323  1.00293182 88868
GORIZONT 22 [-]         
1 20953U 90102A   15039.37679422 -.00000303  00000-0  00000+0 0  9995
2 20953  14.7150  14.8317 0003677 212.6148 184.5392  1.00296758 88826
GORIZONT 23 [-]         
1 21533U 91046A   15040.51135273 -.00000141  00000-0  00000+0 0  9997
2 21533  15.0422  18.4074 0006914 211.6656 281.3320  0.98909741 79722
GORIZONT 24 [-]         
1 21759U 91074A   15039.26511068 -.00000072  00000-0  00000+0 0  9991
2 21759  14.9971  19.9558 0021524 155.6351 269.4787  0.98442777 84210
GORIZONT 25 [-]         
1 21922U 92017A   15038.65404808  .00000011  00000-0  00000+0 0  9998
2 21922  14.5806  19.9177 0024130   5.0840 231.8385  0.99843287 83510
GORIZONT 26 [-]         
1 22041U 92043A   15039.15962042 -.00000105  00000-0  00000+0 0  9990
2 22041  14.5478  21.4456 0034032 161.6955  24.4243  0.99244899 82336
GORIZONT 27 [-]         
1 22245U 92082A   15040.24871839  .00000098  00000-0  00000+0 0  9994
2 22245  14.4698  21.8324 0011560 272.0481 132.7951  1.00187601 85618
GORIZONT 28 [-]         
1 22880U 93069A   15040.53557873 -.00000021  00000-0  00000+0 0  9993
2 22880  14.2002  25.0974 0032173  62.2751 139.0291  0.99647441 77820
GORIZONT 29 [-]         
1 22907U 93072A   15038.61862222  .00000049  00000-0  00000+0 0  9999
2 22907  14.1539  24.9395 0011152 247.4917 318.7809  1.00120471 77669
GORIZONT 30 [-]         
1 23108U 94030A   15040.23136889 -.00000108  00000-0  00000+0 0  9999
2 23108  14.0585  25.9525 0004557 166.1162  19.3548  1.00266427 75911
GORIZONT 31 [-]         
1 23775U 96005A   15041.02748870  .00000033  00000-0  00000+0 0  9996
2 23775  13.3106  31.3760 0022483 131.2441  54.5764  0.99880904 69637
GORIZONT 32 [-]         
1 23880U 96034A   15041.07484813  .00000126  00000-0  00000+0 0  9997
2 23880  13.1954  32.1011 0008580 246.5930 290.5247  1.00154957 68515
GORIZONT 33 [-]         
1 26372U 00029A   15040.84954304  .00000010  00000-0  00000+0 0  9998
2 26372  10.8144  41.1253 0001559 107.7107 299.5946  1.00306649 53842
